STARLINK-30931          
1 58413U 23180M   26068.92518458  .00000338  00000+0  22263-4 0  9991
2 58413  43.0053  39.9328 0000821 198.3660 161.7162 15.26744160127792
TRANSPORTER-13 OBJECT AH
1 63241U 25052AH  26068.64880921  .00014108  00000+0  55931-3 0  9999
2 63241  97.3962 323.1443 0008070 138.7508 221.4341 15.25468797 54753
